EUTELSAT 21B            
1 38992U 12062B   25353.55696727  .00000154  00000+0  00000+0 0  9995
2 38992   0.0699 337.9686 0003254 294.4123  38.1437  1.00268650 48026
EUTELSAT 117 WEST A     
1 39122U 13012A   25353.51503255  .00000011  00000+0  00000+0 0  9998
2 39122   0.0320 299.7491 0002807 334.4616 242.7738  1.00274631 46635
EUTELSAT 7B             
1 39163U 13022A   25353.26873185  .00000073  00000+0  00000+0 0  9996
2 39163   0.0652 356.9078 0004283 324.8571 230.1004  1.00270274 46140
EXPRESS-AT1             
1 39612U 14010A   25353.56372733  .00000000  00000+0  00000+0 0  9999
2 39612   0.0220   3.3546 0000494  88.7338 255.2488  1.00270605 43015
EXPRESS-AT2             
1 39613U 14010B   25353.63725047 -.00000257  00000+0  00000+0 0  9993
2 39613   0.0167 316.7703 0001024 332.8216 168.1578  1.00271653 42701
EUTELSAT 3B             
1 39773U 14030A   25353.55332726  .00000045  00000+0  00000+0 0  9995
2 39773   0.0604   4.3450 0004172 228.1768  58.1672  1.00272393 42265
EUTELSAT 115 WEST B     
1 40425U 15010B   25353.50572203 -.00000001  00000+0  00000+0 0  9994
2 40425   0.0143 153.4054 0000376 157.9495 204.1658  1.00273295 39594
